LEMUR-2-HUBBLE-4        
1 64565U 25135AP  26204.11295278  .00001237  00000+0  12226-3 0  9999
2 64565  97.7722 317.6059 0003247 143.9745 216.1695 14.93700722 59236
LEMUR-2-SEJONG-2        
1 64586U 25135BL  26204.26965045  .00005859  00000+0  51446-3 0  9995
2 64586  97.7712 319.0542 0004453 182.2247 177.8956 14.96966207 59344
LEMUR-2-HUBBLE-5        
1 64840U 25135BT  26204.18596518  .00001427  00000+0  13842-3 0  9999
2 64840  97.7742 318.3557 0004968 203.9370 156.1620 14.94228388 59287
LEMUR-2-KARENDARRELL    
1 64841U 25135BU  26203.79849381  .00007940  00000+0  63228-3 0  9994
2 64841  97.7721 319.9655 0013015  81.7245 278.5453 15.00577316 59354
LEMUR-2-LUCILLE-ROSE    
1 65403U 25135BV  26203.77203599  .00007551  00000+0  60148-3 0  9998
2 65403  97.7688 319.9724 0015581 166.4570 193.7074 15.00558075 53970
LEMUR-2-AFFIE-WAUWIE    
1 66295U 25248C   26204.21280272  .00020771  00000+0  74289-3 0  9996
2 66295  45.3913 279.5994 0009333 293.1633  66.8272 15.28503726 40100
OTTER SDM               
1 66678U 25276N   26204.19417198  .00006055  00000+0  28315-3 0  9996
2 66678  97.4194 277.0787 0004866 218.2161 141.8730 15.20124446 35889
LEMUR-2-STAS-GORBUK     
1 66686U 25276W   26204.15187419  .00005495  00000+0  26035-3 0  9995
2 66686  97.4227 277.0873 0004249 212.6305 147.4668 15.19715909 35873
LEMUR-2-TEODOR          
1 66768U 25276DG  26204.16186856  .00005623  00000+0  25369-3 0  9993
2 66768  97.4134 277.3795 0002068  82.7522 277.3949 15.21398312 35919
LEMUR-2-LAILA           
1 66776U 25276DQ  26204.19624638  .00005556  00000+0  24907-3 0  9992
2 66776  97.4157 277.5570 0002757  82.7172 277.4378 15.21626275 35922
LEMUR-2-CELIJO-SB-PK    
1 66781U 25276DW  26204.25492159  .00006251  00000+0  50226-3 0  9992
2 66781  97.5182 273.8404 0006525  44.8181 315.3569 15.00350636 28038
LEMUR-2-FINNIAN         
1 66782U 25276DX  26204.15672261  .00005402  00000+0  43100-3 0  9996
2 66782  97.5351 274.0329 0006907 328.3462  31.7346 15.00680472 25394
LEMUR-2-STARLIGHT       
1 66783U 25276DY  26204.14400245  .00006524  00000+0  53583-3 0  9999
2 66783  97.5243 273.5555 0014437  23.0438 337.1430 14.99428649 35581
LEMUR-2-TARTIFLETTE     
1 66784U 25276DZ  26204.14249792  .00006309  00000+0  51868-3 0  9993
2 66784  97.5241 273.5617 0013729  32.0065 328.1990 14.99409339 35584
LEMUR-2-VUKASIN         
1 66785U 25276EA  26204.17320042  .00005384  00000+0  43063-3 0  9995
2 66785  97.5197 273.9619 0001816  23.3545 336.7761 15.00600580 35542
LEMUR-2-HOTSPUR-TOM     
1 66786U 25276EB  26204.13744019  .00006439  00000+0  53079-3 0  9996
2 66786  97.5217 273.5281 0013455  23.8988 336.2857 14.99305596 35519
